STARLINK-30372          
1 57789U 23134U   26068.07043306 -.00000125  00000+0  49857-5 0  9990
2 57789  43.0069  81.8748 0002165 274.4128  85.6476 15.27591071140771
GESAT GEN1              
1 62612U 25009D   26068.72662138  .00010041  00000+0  38326-3 0  9990
2 62612  97.4058 151.4598 0000888  98.3547 261.7793 15.26847505 63732
